{
  "type": "FeatureCollection",
  "name": "Mysore_ULB_Boundaries_v1",
  "crs": {
    "type": "name",
    "properties": {
      "name": "urn:ogc:def:crs:OGC:1.3:CRS84"
    }
  },
  "features": [
    {
      "type": "Feature",
      "properties": {
        "ulb_code": "ULB-MCC-01",
        "ulb_name": "Mysore City Corporation (MCC)",
        "ulb_type": "City Corporation",
        "district": "Mysuru",
        "state": "Karnataka",
        "color": "#8B5CF6",
        "fill_color": "rgba(139, 92, 246, 0.25)",
        "contact_helpline": "0821-2418800"
      },
      "geometry": {
        "type": "Polygon",
        "coordinates": [
          [
            [76.620, 12.270],
            [76.680, 12.270],
            [76.680, 12.340],
            [76.630, 12.340],
            [76.620, 12.310],
            [76.620, 12.270]
          ]
        ]
      }
    },
    {
      "type": "Feature",
      "properties": {
        "ulb_code": "ULB-HTC-02",
        "ulb_name": "Hootagalli CMC",
        "ulb_type": "City Municipal Council",
        "district": "Mysuru",
        "state": "Karnataka",
        "color": "#10B981",
        "fill_color": "rgba(16, 185, 129, 0.25)",
        "contact_helpline": "0821-2401200"
      },
      "geometry": {
        "type": "Polygon",
        "coordinates": [
          [
            [76.540, 12.330],
            [76.620, 12.330],
            [76.620, 12.390],
            [76.540, 12.390],
            [76.540, 12.330]
          ]
        ]
      }
    },
    {
      "type": "Feature",
      "properties": {
        "ulb_code": "ULB-BGD-03",
        "ulb_name": "Bogadi TP",
        "ulb_type": "Town Panchayat",
        "district": "Mysuru",
        "state": "Karnataka",
        "color": "#F59E0B",
        "fill_color": "rgba(245, 158, 11, 0.25)",
        "contact_helpline": "0821-2598100"
      },
      "geometry": {
        "type": "Polygon",
        "coordinates": [
          [
            [76.540, 12.260],
            [76.620, 12.260],
            [76.620, 12.330],
            [76.540, 12.330],
            [76.540, 12.260]
          ]
        ]
      }
    }
  ]
}
